OBJECT_NAME,OBJECT_ID,EPOCH,MEAN_MOTION,ECCENTRICITY,INCLINATION,RA_OF_ASC_NODE,ARG_OF_PERICENTER,MEAN_ANOMALY,EPHEMERIS_TYPE,CLASSIFICATION_TYPE,NORAD_CAT_ID,ELEMENT_SET_NO,REV_AT_EPOCH,BSTAR,MEAN_MOTION_DOT,MEAN_MOTION_DDOT
O3B MPOWER F3,2023-059B,2026-06-18T14:33:49.819104,5.00116450,.0006721,0.0643,353.9504,92.2778,273.8463,0,U,56368,999,5480,0,-.23E-6,0
VIASAT-3 F1,2023-060A,2026-06-18T19:20:41.048160,1.00270504,.0001035,0.0244,348.3269,90.7537,29.1751,0,U,56370,999,1145,0,0,0
ARCTURUS,2023-060B,2026-06-18T18:51:04.443840,1.00272377,.0002601,2.7793,79.9344,51.4680,130.8872,0,U,56371,999,1147,0,-.7E-6,0
GS-1,2023-060C,2026-06-18T17:20:11.630976,1.00274169,.0003742,2.7297,79.8139,281.5832,255.0259,0,U,56372,999,755,0,-.232E-5,0
STARLINK-6156,2023-061A,2026-06-18T18:28:35.584320,15.27583520,.0001538,43.0071,347.4754,263.3135,96.7541,0,U,56374,999,17330,.65867E-4,.1551E-4,0
STARLINK-6158,2023-061B,2026-06-18T18:56:07.713024,15.27574469,.0001133,43.0036,346.7606,271.8595,88.2127,0,U,56375,999,17221,.18446E-4,.245E-5,0
STARLINK-6188,2023-061C,2026-06-18T18:41:19.286016,15.27577665,.0001191,43.0015,346.6831,272.0287,88.0429,0,U,56376,999,17221,.18018E-4,.234E-5,0
STARLINK-6189,2023-061D,2026-06-18T18:37:49.889568,15.27578262,.0001206,43.0028,347.5231,269.8560,90.2153,0,U,56377,999,17220,.19848E-4,.284E-5,0
STARLINK-6191,2023-061E,2026-06-18T18:50:34.224576,15.27579043,.0001004,43.0064,346.7307,259.8342,100.2396,0,U,56378,999,17221,.20209E-4,.294E-5,0
STARLINK-6157,2023-061F,2026-06-18T18:59:49.632288,15.27574362,.000117,43.0052,346.7834,262.2770,97.7949,0,U,56379,999,17331,-.37274E-5,-.365E-5,0
STARLINK-6159,2023-061H,2026-06-17T21:51:36.165600,15.27573990,.00009839,43.0017,352.2066,254.7077,105.3666,0,U,56381,999,17207,.15849021E-4,.174E-5,0
STARLINK-6160,2023-061J,2026-06-16T19:03:32.520096,15.27566639,.00017592,43.0092,358.4461,271.1747,88.8903,0,U,56382,999,17190,-.40189856E-4,-.1368E-4,0
STARLINK-6166,2023-061K,2026-06-17T23:12:47.884896,15.27531585,.00011313,43.0013,351.7792,329.9013,30.1774,0,U,56383,999,17208,-.98545895E-3,-.2724E-3,0
STARLINK-6153,2023-061L,2026-06-17T21:34:54.748992,15.27589199,.00021376,43.0079,352.1172,263.7167,96.3442,0,U,56384,999,17207,.51326035E-4,.115E-4,0
STARLINK-6173,2023-061M,2026-06-18T13:07:15.751776,15.27571597,.0001142,43.0024,348.3801,267.2259,92.8462,0,U,56385,999,17217,.30203E-4,.569E-5,0
STARLINK-5836,2023-061N,2026-06-18T18:10:05.170656,15.27573070,.0001223,43.0048,347.3782,284.2914,75.7802,0,U,56386,999,17220,.1627E-4,.186E-5,0
STARLINK-6178,2023-061P,2026-06-18T18:52:25.336704,15.27578072,.0001055,43.0063,346.7415,264.2240,95.8491,0,U,56387,999,17221,.15133E-4,.154E-5,0
STARLINK-6176,2023-061Q,2026-06-18T18:24:54.360576,15.27563704,.0001761,43.0079,347.4398,280.5016,79.5637,0,U,56388,999,17220,-.29965E-4,-.1086E-4,0
STARLINK-6145,2023-061R,2026-06-16T06:26:34.296000,15.27580447,.0001961,43.0065,1.3776,269.7588,90.3039,0,U,56389,999,17182,.31033E-4,.592E-5,0
STARLINK-6298,2023-061T,2026-06-18T18:46:52.408992,15.27581116,.0000762,43.0031,346.7055,267.2936,92.7828,0,U,56391,999,17221,.17768E-5,-.213E-5,0
STARLINK-6301,2023-061U,2026-06-18T12:32:19.262688,15.27578890,.0001163,43.0029,337.7685,251.9463,108.1262,0,U,56392,999,17229,.12616E-4,.85E-6,0
STARLINK-6303,2023-061V,2026-06-17T21:20:07.987776,15.27579481,.00014184,43.0051,352.0404,272.1602,87.9087,0,U,56393,999,17207,.18589738E-4,.249E-5,0
STARLINK-6305,2023-061W,2026-06-18T11:36:48.793248,15.27578574,.0001324,43.0009,337.4833,265.5815,94.4886,0,U,56394,999,17229,-.98096E-5,-.532E-5,0
STARLINK-6273,2023-061X,2026-06-18T17:40:41.928960,15.27578816,.0001557,43.0027,336.7895,269.3933,90.6741,0,U,56395,999,17303,.22899E-4,.368E-5,0
STARLINK-6302,2023-061Y,2026-06-18T18:10:05.516256,15.27577982,.0001234,43.0035,336.0901,272.6644,87.4066,0,U,56396,999,16746,.15016E-4,.151E-5,0
STARLINK-6271,2023-061Z,2026-06-18T19:03:44.953056,15.27577528,.0001674,43.0034,336.3624,272.2406,87.8254,0,U,56397,999,17233,.39037E-4,.812E-5,0
STARLINK-6288,2023-061AA,2026-06-18T18:15:38.704032,15.27576834,.0000916,43.0053,336.1153,263.3370,96.7377,0,U,56398,999,17233,.83327E-5,-.33E-6,0
STARLINK-6277,2023-061AB,2026-06-18T18:04:32.616192,15.27578697,.0000923,43.0055,336.0640,265.1616,94.9130,0,U,56399,999,17233,.20394E-4,.299E-5,0
STARLINK-6267,2023-061AC,2026-06-18T18:21:11.604096,15.27577435,.000113,43.0062,336.1472,265.6931,94.3792,0,U,56400,999,17233,.11644E-4,.58E-6,0
STARLINK-6287,2023-061AG,2026-06-17T05:12:53.804160,15.27576585,.00008422,42.9990,345.1615,265.3725,94.7031,0,U,56404,999,17209,.29281262E-4,.544E-5,0
STARLINK-6285,2023-061AH,2026-06-18T18:24:53.898336,15.27572092,.0001175,43.0058,336.1617,266.1742,93.8975,0,U,56405,999,17233,-.16753E-4,-.723E-5,0
STARLINK-6283,2023-061AJ,2026-06-18T17:38:50.719200,15.27578734,.0001771,43.0007,336.7687,262.6952,97.3698,0,U,56406,999,17232,.21539E-4,.33E-5,0
STARLINK-6282,2023-061AK,2026-06-18T12:30:28.393344,15.27577316,.0001287,43.0036,337.7506,267.1376,92.9328,0,U,56407,999,17229,.16546E-4,.193E-5,0
STARLINK-6289,2023-061AL,2026-06-18T17:55:17.874624,15.27579571,.0001505,43.0034,335.9898,278.7451,81.3230,0,U,56408,999,17233,.50476E-4,.1127E-4,0
STARLINK-6241,2023-061AM,2026-06-18T11:05:34.049760,15.27576640,.0001711,43.0067,338.1704,280.0584,80.0075,0,U,56409,999,17228,.75109E-5,-.56E-6,0
STARLINK-6281,2023-061AN,2026-06-18T17:46:01.750656,15.27581539,.0001147,43.0022,335.9553,263.7871,96.2850,0,U,56410,999,17233,.29312E-4,.545E-5,0
STARLINK-6279,2023-061AP,2026-06-18T17:27:44.604576,15.27576177,.0001776,43.0051,336.7169,273.5711,86.4938,0,U,56411,999,17232,.75105E-5,-.56E-6,0
STARLINK-6278,2023-061AQ,2026-06-18T18:06:23.412096,15.27578783,.0001143,43.0063,336.0629,260.0895,99.9828,0,U,56412,999,17233,.20248E-4,.295E-5,0
STARLINK-6258,2023-061AR,2026-06-18T17:44:24.108288,15.27579607,.0001792,43.0034,336.8025,271.3104,88.7543,0,U,56413,999,17232,.42485E-4,.907E-5,0
STARLINK-5136,2023-061AS,2026-06-18T12:21:13.149792,15.27579981,.0000905,43.0005,337.6930,262.9211,97.1538,0,U,56414,999,17229,.29715E-4,.556E-5,0
STARLINK-6260,2023-061AU,2026-06-18T11:54:50.047776,15.27583421,.000122,43.0047,330.5234,283.4605,76.6110,0,U,56416,999,17237,-.99814E-5,-.537E-5,0
STARLINK-6261,2023-061AV,2026-06-18T18:17:30.204096,15.27581439,.0001171,43.0032,336.1145,268.0377,92.0340,0,U,56417,999,17233,.66669E-4,.1573E-4,0
STARLINK-5356,2023-061AW,2026-06-18T18:59:21.122016,15.27579436,.0001255,43.0018,328.4305,270.0730,89.9978,0,U,56418,999,17242,.26172E-4,.458E-5,0
STARLINK-5350,2023-061AX,2026-06-18T12:26:46.957056,15.27568398,.0001883,43.0035,337.7276,267.2227,92.8410,0,U,56419,999,17229,.38524E-4,.798E-5,0
STARLINK-6272,2023-061AY,2026-06-18T19:10:27.647040,15.27573954,.0001226,43.0007,328.4892,267.1883,92.8828,0,U,56420,999,17242,.83189E-5,-.33E-6,0
STARLINK-6270,2023-061AZ,2026-06-18T17:59:38.572800,15.27584539,.0000604,43.0050,332.3908,282.7719,77.3065,0,U,56421,999,17237,.32569E-4,.635E-5,0
STARLINK-6236,2023-061BA,2026-06-18T17:51:06.086880,15.27575670,.0001081,43.0030,328.9347,263.8606,96.2123,0,U,56422,999,17241,.71572E-5,-.65E-6,0
STARLINK-6239,2023-061BB,2026-06-18T17:41:52.509984,15.27569412,.0001052,43.0009,328.8874,273.4539,86.6193,0,U,56423,999,17241,.15393E-5,-.22E-5,0
STARLINK-6242,2023-061BC,2026-06-18T18:02:13.195104,15.27574027,.0000793,43.0041,328.9949,267.9199,92.1561,0,U,56424,999,17241,.10647E-4,.31E-6,0
STARLINK-6224,2023-061BD,2026-06-18T17:56:37.957920,15.27590510,.0001501,43.0029,328.9651,273.4539,86.6141,0,U,56425,999,17241,.77452E-4,.187E-4,0
STARLINK-5352,2023-061BE,2026-06-18T12:02:13.812000,15.27575199,.0001635,43.0031,330.5462,271.3634,88.7031,0,U,56426,999,17237,.14504E-4,.137E-5,0
STARLINK-5724,2023-061BF,2026-06-17T04:42:47.786688,15.27583212,.00018492,43.0030,337.9499,271.0516,89.0124,0,U,56427,999,17217,.51484871E-4,.1155E-4,0
STARLINK-6238,2023-061BG,2026-06-18T11:51:07.621344,15.27576155,.0001438,43.0009,330.4980,279.3957,80.6732,0,U,56428,999,17237,-.28809E-4,-.1055E-4,0
STARLINK-6264,2023-061BH,2026-06-18T10:22:31.672992,15.27572863,.00016,43.0044,330.8926,275.3808,84.6862,0,U,56429,999,17236,-.10979E-4,-.564E-5,0
STARLINK-5990,2023-064A,2026-06-18T15:01:56.098272,14.98330151,.0003506,69.9983,250.0253,268.9306,91.1452,0,U,56448,999,17036,.50554E-5,-.33E-6,0
STARLINK-5993,2023-064B,2026-06-18T12:19:28.889184,14.98338997,.0003015,69.9986,250.4335,269.7258,90.3555,0,U,56449,999,17034,-.45467E-4,-.636E-5,0
STARLINK-5970,2023-064C,2026-06-18T14:55:55.372224,14.98329915,.0003436,69.9985,250.0111,266.7361,93.3404,0,U,56450,999,17036,-.23435E-5,-.121E-5,0
STARLINK-5985,2023-064D,2026-06-18T12:13:28.121664,14.98324856,.0003095,69.9982,250.4192,272.4355,87.6450,0,U,56451,999,17034,-.10026E-3,-.1289E-4,0
STARLINK-5986,2023-064E,2026-06-18T15:19:43.711968,14.98331674,.0003287,69.9982,250.0680,269.9452,90.1330,0,U,56452,999,17036,.24609E-5,-.64E-6,0
STARLINK-5935,2023-064F,2026-06-18T15:13:43.234752,14.98329830,.0003205,69.9985,250.0525,270.0791,90.0000,0,U,56453,999,17036,-.13054E-4,-.249E-5,0
STARLINK-5959,2023-064G,2026-06-18T14:43:39.925056,14.98329488,.0003573,69.9988,249.9809,267.3960,92.6790,0,U,56454,999,17036,.1479E-4,.83E-6,0
STARLINK-5987,2023-064H,2026-06-18T14:37:39.319968,14.98328323,.0003391,69.9989,249.9650,268.0563,92.0207,0,U,56455,999,17036,.92619E-6,-.82E-6,0
STARLINK-5995,2023-064J,2026-06-18T14:55:41.256192,14.98328578,.0003488,69.9986,250.0089,269.3015,90.7745,0,U,56456,999,17036,-.1832E-4,-.312E-5,0
STARLINK-5994,2023-064K,2026-06-18T14:49:40.625184,14.98319981,.0003062,70.0027,249.9987,264.7576,95.3234,0,U,56457,999,17036,-.23403E-4,-.372E-5,0
STARLINK-6050,2023-064L,2026-06-18T15:01:41.877696,14.98330282,.0003562,69.9984,250.0229,269.6338,90.4413,0,U,56458,999,17036,.12308E-5,-.78E-6,0
STARLINK-6048,2023-064M,2026-06-18T14:13:50.912832,14.98329402,.000339,69.9993,249.9091,268.6576,91.4195,0,U,56459,999,17035,.14179E-4,.76E-6,0
